2020/06/16 05:56
KSFO 160556Z 28018G28KT 10SM CLR 14/09 A3000 RMK AO2 PK WND 27034/0510 SLP158 T01440094 10189 20144 55000