2020/06/16 05:53
KSJC 160553Z 35006KT 10SM FEW009 FEW024 17/09 A3002 RMK AO2 SLP165 T01670094 10233 20167 51002